IRIDIUM 103             
1 41918U 17003B   24137.48964050  .00000962  00000+0  33640-3 0  9992
2 41918  86.3995  46.7352 0002367  74.8621 285.2836 14.34219165384058
IRIDIUM 109             
1 41919U 17003C   24137.49598493 -.00000779  00000+0 -28513-3 0  9999
2 41919  86.3997  46.7791 0002518  82.2901 277.8581 14.34217000384027
IRIDIUM 105             
1 41921U 17003E   24137.36526981  .00000801  00000+0  27881-3 0  9992
2 41921  86.4005  15.2132 0002163  81.4177 278.7264 14.34225276385947
IRIDIUM 104             
1 41922U 17003F   24137.19788537  .00000019  00000+0 -35525-6 0  9990
2 41922  86.3994  46.8747 0002495  82.7577 277.3902 14.34217094384056
IRIDIUM 114             
1 41923U 17003G   24137.27399550  .00000385  00000+0  13034-3 0  9996
2 41923  86.3996  46.8289 0002043  87.0170 273.1260 14.34216148384045
IRIDIUM 108             
1 41924U 17003H   24137.37205670  .00000008  00000+0 -42677-5 0  9997
2 41924  86.4000  15.1373 0001971  87.9485 272.1937 14.34216509385911
